HULIANWANG DIGUI-44     
1 65047U 25162E   26199.25689691 -.00000109  00000+0  31775-4 0  9998
2 65047  50.0001 154.2571 0001419 340.8147  19.2672 13.29318646 47503
HULIANWANG DIGUI-45     
1 65048U 25162F   26199.24865136 -.00000105  00000+0  41509-4 0  9990
2 65048  50.0031 154.2984 0000261 337.9057  22.1804 13.29327234 47497
HULIANWANG DIGUI-46     
1 65049U 25162G   26199.24032149 -.00000097  00000+0  58101-4 0  9997
2 65049  50.0049 154.3057 0000248 333.5459  26.5400 13.29327075 47495
HULIANWANG DIGUI-47     
1 65050U 25162H   26199.23197011 -.00000097  00000+0  59316-4 0  9997
2 65050  50.0013 154.1642 0000253 324.9364  35.1492 13.29326709 47491
HULIANWANG DIGUI-48     
1 65051U 25162J   26199.29878982 -.00000102  00000+0  48133-4 0  9999
2 65051  50.0023 153.8784 0000263 333.3702  26.7157 13.29327452 47509
HULIANWANG DIGUI-49     
1 65106U 25168A   26199.28580949 -.00000112  00000+0  25290-4 0  9998
2 65106  50.0007 214.4290 0008292 200.5109 159.5431 13.29322160 46829
HULIANWANG DIGUI-50     
1 65107U 25168B   26199.27740514 -.00000117  00000+0  15539-4 0  9994
2 65107  49.9977 214.2984 0008863 186.3670 173.7090 13.29321817 46826
HULIANWANG DIGUI-51     
1 65108U 25168C   26199.26869387 -.00000110  00000+0  29582-4 0  9990
2 65108  50.0014 214.3595 0010175 185.4094 174.6670 13.29324970 46827
HULIANWANG DIGUI-52     
1 65109U 25168D   26199.26059978 -.00000108  00000+0  35267-4 0  9992
2 65109  50.0008 214.2936 0010418 197.9993 162.0511 13.29322842 46826
HULIANWANG DIGUI-53     
1 65110U 25168E   26199.25206373 -.00000108  00000+0  33823-4 0  9992
2 65110  50.0015 214.2788 0008911 189.0105 171.0608 13.29326294 46825
HULIANWANG DIGUI-54     
1 65111U 25168F   26199.22719862 -.00000107  00000+0  37461-4 0  9993
2 65111  49.9966 214.0089 0010741 193.2237 166.8355 13.29326546 46828
HULIANWANG DIGUI-55     
1 65112U 25168G   26199.31899270 -.00000103  00000+0  45029-4 0  9991
2 65112  49.9972 213.8392 0011796 189.4440 170.6212 13.29322746 46838
HULIANWANG DIGUI-56     
1 65113U 25168H   26199.31070865 -.00000106  00000+0  38248-4 0  9991
2 65113  49.9964 213.7721 0011973 209.3110 150.7091 13.29322260 46833
HULIANWANG DIGUI-57     
1 65114U 25168J   26199.21887462 -.00000108  00000+0  34845-4 0  9991
2 65114  49.9992 214.0389 0009588 201.3173 158.7301 13.29326505 46837
HULIANWANG DIGUI-58     
1 65164U 25174A   26199.31685612  .00000033  00000+0  42647-4 0  9992
2 65164  86.4943 241.4997 0001827 100.7666 259.3674 13.24407612 44912
HULIANWANG DIGUI-59     
1 65165U 25174B   26199.24890018  .00000016  00000+0  38318-5 0  9995
2 65165  86.4904 241.4015 0001921  99.6503 260.4848 13.24407662 44902
