{"fetched_at":"2026-07-18T17:29:57.623Z","source":"https://celestrak.org/NORAD/elements/gp.php?NAME=HULIANWANG&FORMAT=JSON","constellation":"guowang","records":[{"OBJECT_NAME":"HULIANWANG DIGUI-44","OBJECT_ID":"2025-162E","EPOCH":"2026-07-18T06:09:55.893024","CLASSIFICATION_TYPE":"U","MEAN_MOTION":13.29318646,"ECCENTRICITY":0.00014194,"INCLINATION":50.0001,"RA_OF_ASC_NODE":154.2571,"ARG_OF_PERICENTER":340.8147,"MEAN_ANOMALY":19.2672,"EPHEMERIS_TYPE":0,"NORAD_CAT_ID":65047,"ELEMENT_SET_NO":999,"REV_AT_EPOCH":4750,"BSTAR":0.000031774509,"MEAN_MOTION_DOT":-0.00000109,"MEAN_MOTION_DDOT":0},{"OBJECT_NAME":"HULIANWANG DIGUI-45","OBJECT_ID":"2025-162F","EPOCH":"2026-07-18T05:58:03.477504","CLASSIFICATION_TYPE":"U","MEAN_MOTION":13.29327234,"ECCENTRICITY":0.00002616,"INCLINATION":50.0031,"RA_OF_ASC_NODE":154.2984,"ARG_OF_PERICENTER":337.9057,"MEAN_ANOMALY":22.1804,"EPHEMERIS_TYPE":0,"NORAD_CAT_ID":65048,"ELEMENT_SET_NO":999,"REV_AT_EPOCH":4749,"BSTAR":0.000041508616,"MEAN_MOTION_DOT":-0.00000105,"MEAN_MOTION_DDOT":0},{"OBJECT_NAME":"HULIANWANG DIGUI-46","OBJECT_ID":"2025-162G","EPOCH":"2026-07-18T05:46:03.776736","CLASSIFICATION_TYPE":"U","MEAN_MOTION":13.29327075,"ECCENTRICITY":0.00002489,"INCLINATION":50.0049,"RA_OF_ASC_NODE":154.3057,"ARG_OF_PERICENTER":333.5459,"MEAN_ANOMALY":26.54,"EPHEMERIS_TYPE":0,"NORAD_CAT_ID":65049,"ELEMENT_SET_NO":999,"REV_AT_EPOCH":4749,"BSTAR":0.000058100735,"MEAN_MOTION_DOT":-9.7e-7,"MEAN_MOTION_DDOT":0},{"OBJECT_NAME":"HULIANWANG DIGUI-47","OBJECT_ID":"2025-162H","EPOCH":"2026-07-18T05:34:02.217504","CLASSIFICATION_TYPE":"U","MEAN_MOTION":13.29326709,"ECCENTRICITY":0.00002532,"INCLINATION":50.0013,"RA_OF_ASC_NODE":154.1642,"ARG_OF_PERICENTER":324.9364,"MEAN_ANOMALY":35.1492,"EPHEMERIS_TYPE":0,"NORAD_CAT_ID":65050,"ELEMENT_SET_NO":999,"REV_AT_EPOCH":4749,"BSTAR":0.000059316264,"MEAN_MOTION_DOT":-9.7e-7,"MEAN_MOTION_DDOT":0},{"OBJECT_NAME":"HULIANWANG DIGUI-48","OBJECT_ID":"2025-162J","EPOCH":"2026-07-18T07:10:15.440448","CLASSIFICATION_TYPE":"U","MEAN_MOTION":13.29327452,"ECCENTRICITY":0.00002631,"INCLINATION":50.0023,"RA_OF_ASC_NODE":153.8784,"ARG_OF_PERICENTER":333.3702,"MEAN_ANOMALY":26.7157,"EPHEMERIS_TYPE":0,"NORAD_CAT_ID":65051,"ELEMENT_SET_NO":999,"REV_AT_EPOCH":4750,"BSTAR":0.000048132884,"MEAN_MOTION_DOT":-0.00000102,"MEAN_MOTION_DDOT":0},{"OBJECT_NAME":"HULIANWANG DIGUI-49","OBJECT_ID":"2025-168A","EPOCH":"2026-07-18T06:51:33.939936","CLASSIFICATION_TYPE":"U","MEAN_MOTION":13.2932216,"ECCENTRICITY":0.00082922,"INCLINATION":50.0007,"RA_OF_ASC_NODE":214.429,"ARG_OF_PERICENTER":200.5109,"MEAN_ANOMALY":159.5431,"EPHEMERIS_TYPE":0,"NORAD_CAT_ID":65106,"ELEMENT_SET_NO":999,"REV_AT_EPOCH":4682,"BSTAR":0.000025290406,"MEAN_MOTION_DOT":-0.00000112,"MEAN_MOTION_DDOT":0},{"OBJECT_NAME":"HULIANWANG DIGUI-50","OBJECT_ID":"2025-168B","EPOCH":"2026-07-18T06:39:27.804096","CLASSIFICATION_TYPE":"U","MEAN_MOTION":13.29321817,"ECCENTRICITY":0.00088634,"INCLINATION":49.9977,"RA_OF_ASC_NODE":214.2984,"ARG_OF_PERICENTER":186.367,"MEAN_ANOMALY":173.709,"EPHEMERIS_TYPE":0,"NORAD_CAT_ID":65107,"ELEMENT_SET_NO":999,"REV_AT_EPOCH":4682,"BSTAR":0.000015539023,"MEAN_MOTION_DOT":-0.00000117,"MEAN_MOTION_DDOT":0},{"OBJECT_NAME":"HULIANWANG DIGUI-51","OBJECT_ID":"2025-168C","EPOCH":"2026-07-18T06:26:55.150368","CLASSIFICATION_TYPE":"U","MEAN_MOTION":13.2932497,"ECCENTRICITY":0.00101753,"INCLINATION":50.0014,"RA_OF_ASC_NODE":214.3595,"ARG_OF_PERICENTER":185.4094,"MEAN_ANOMALY":174.667,"EPHEMERIS_TYPE":0,"NORAD_CAT_ID":65108,"ELEMENT_SET_NO":999,"REV_AT_EPOCH":4682,"BSTAR":0.000029582163,"MEAN_MOTION_DOT":-0.0000011,"MEAN_MOTION_DDOT":0},{"OBJECT_NAME":"HULIANWANG DIGUI-52","OBJECT_ID":"2025-168D","EPOCH":"2026-07-18T06:15:15.820992","CLASSIFICATION_TYPE":"U","MEAN_MOTION":13.29322842,"ECCENTRICITY":0.0010418,"INCLINATION":50.0008,"RA_OF_ASC_NODE":214.2936,"ARG_OF_PERICENTER":197.9993,"MEAN_ANOMALY":162.0511,"EPHEMERIS_TYPE":0,"NORAD_CAT_ID":65109,"ELEMENT_SET_NO":999,"REV_AT_EPOCH":4682,"BSTAR":0.000035266674,"MEAN_MOTION_DOT":-0.00000108,"MEAN_MOTION_DDOT":0},{"OBJECT_NAME":"HULIANWANG DIGUI-53","OBJECT_ID":"2025-168E","EPOCH":"2026-07-18T06:02:58.306272","CLASSIFICATION_TYPE":"U","MEAN_MOTION":13.29326294,"ECCENTRICITY":0.00089112,"INCLINATION":50.0015,"RA_OF_ASC_NODE":214.2788,"ARG_OF_PERICENTER":189.0105,"MEAN_ANOMALY":171.0608,"EPHEMERIS_TYPE":0,"NORAD_CAT_ID":65110,"ELEMENT_SET_NO":999,"REV_AT_EPOCH":4682,"BSTAR":0.000033822948,"MEAN_MOTION_DOT":-0.00000108,"MEAN_MOTION_DDOT":0},{"OBJECT_NAME":"HULIANWANG DIGUI-54","OBJECT_ID":"2025-168F","EPOCH":"2026-07-18T05:27:09.960768","CLASSIFICATION_TYPE":"U","MEAN_MOTION":13.29326546,"ECCENTRICITY":0.00107419,"INCLINATION":49.9966,"RA_OF_ASC_NODE":214.0089,"ARG_OF_PERICENTER":193.2237,"MEAN_ANOMALY":166.8355,"EPHEMERIS_TYPE":0,"NORAD_CAT_ID":65111,"ELEMENT_SET_NO":999,"REV_AT_EPOCH":4682,"BSTAR":0.000037461004,"MEAN_MOTION_DOT":-0.00000107,"MEAN_MOTION_DDOT":0},{"OBJECT_NAME":"HULIANWANG DIGUI-55","OBJECT_ID":"2025-168G","EPOCH":"2026-07-18T07:39:20.969280","CLASSIFICATION_TYPE":"U","MEAN_MOTION":13.29322746,"ECCENTRICITY":0.00117961,"INCLINATION":49.9972,"RA_OF_ASC_NODE":213.8392,"ARG_OF_PERICENTER":189.444,"MEAN_ANOMALY":170.6212,"EPHEMERIS_TYPE":0,"NORAD_CAT_ID":65112,"ELEMENT_SET_NO":999,"REV_AT_EPOCH":4683,"BSTAR":0.00004502917,"MEAN_MOTION_DOT":-0.00000103,"MEAN_MOTION_DDOT":0},{"OBJECT_NAME":"HULIANWANG DIGUI-56","OBJECT_ID":"2025-168H","EPOCH":"2026-07-18T07:27:25.227360","CLASSIFICATION_TYPE":"U","MEAN_MOTION":13.2932226,"ECCENTRICITY":0.00119731,"INCLINATION":49.9964,"RA_OF_ASC_NODE":213.7721,"ARG_OF_PERICENTER":209.311,"MEAN_ANOMALY":150.7091,"EPHEMERIS_TYPE":0,"NORAD_CAT_ID":65113,"ELEMENT_SET_NO":999,"REV_AT_EPOCH":4683,"BSTAR":0.000038248447,"MEAN_MOTION_DOT":-0.00000106,"MEAN_MOTION_DDOT":0},{"OBJECT_NAME":"HULIANWANG DIGUI-57","OBJECT_ID":"2025-168J","EPOCH":"2026-07-18T05:15:10.767168","CLASSIFICATION_TYPE":"U","MEAN_MOTION":13.29326505,"ECCENTRICITY":0.00095882,"INCLINATION":49.9992,"RA_OF_ASC_NODE":214.0389,"ARG_OF_PERICENTER":201.3173,"MEAN_ANOMALY":158.7301,"EPHEMERIS_TYPE":0,"NORAD_CAT_ID":65114,"ELEMENT_SET_NO":999,"REV_AT_EPOCH":4683,"BSTAR":0.000034845372,"MEAN_MOTION_DOT":-0.00000108,"MEAN_MOTION_DDOT":0},{"OBJECT_NAME":"HULIANWANG DIGUI-58","OBJECT_ID":"2025-174A","EPOCH":"2026-07-18T07:36:16.368768","CLASSIFICATION_TYPE":"U","MEAN_MOTION":13.24407612,"ECCENTRICITY":0.00018277,"INCLINATION":86.4943,"RA_OF_ASC_NODE":241.4997,"ARG_OF_PERICENTER":100.7666,"MEAN_ANOMALY":259.3674,"EPHEMERIS_TYPE":0,"NORAD_CAT_ID":65164,"ELEMENT_SET_NO":999,"REV_AT_EPOCH":4491,"BSTAR":0.000042646596,"MEAN_MOTION_DOT":3.3e-7,"MEAN_MOTION_DDOT":0},{"OBJECT_NAME":"HULIANWANG DIGUI-59","OBJECT_ID":"2025-174B","EPOCH":"2026-07-18T05:58:24.975552","CLASSIFICATION_TYPE":"U","MEAN_MOTION":13.24407662,"ECCENTRICITY":0.00019212,"INCLINATION":86.4904,"RA_OF_ASC_NODE":241.4015,"ARG_OF_PERICENTER":99.6503,"MEAN_ANOMALY":260.4848,"EPHEMERIS_TYPE":0,"NORAD_CAT_ID":65165,"ELEMENT_SET_NO":999,"REV_AT_EPOCH":4490,"BSTAR":0.000003831844,"MEAN_MOTION_DOT":1.6e-7,"MEAN_MOTION_DDOT":0}]}
